[{"OBJECT_NAME":"OBJECT E","OBJECT_ID":"2025-055E","EPOCH":"2026-03-09T22:44:31.516800","MEAN_MOTION":15.14943489,"ECCENTRICITY":0.00151584,"INCLINATION":97.6347,"RA_OF_ASC_NODE":207.9935,"ARG_OF_PERICENTER":118.7219,"MEAN_ANOMALY":241.5538,"EPHEMERIS_TYPE":0,"CLASSIFICATION_TYPE":"U","NORAD_CAT_ID":63295,"ELEMENT_SET_NO":999,"REV_AT_EPOCH":5397,"BSTAR":0.00069679591,"MEAN_MOTION_DOT":0.00012971,"MEAN_MOTION_DDOT":0},{"OBJECT_NAME":"FLOCK 4H-35","OBJECT_ID":"2025-276CA","EPOCH":"2026-03-09T10:26:28.836672","MEAN_MOTION":15.19480603,"ECCENTRICITY":4.762e-5,"INCLINATION":97.4266,"RA_OF_ASC_NODE":143.8032,"ARG_OF_PERICENTER":262.5938,"MEAN_ANOMALY":97.5242,"EPHEMERIS_TYPE":0,"CLASSIFICATION_TYPE":"U","NORAD_CAT_ID":66738,"ELEMENT_SET_NO":999,"REV_AT_EPOCH":1457,"BSTAR":0.00040654248,"MEAN_MOTION_DOT":8.562e-5,"MEAN_MOTION_DDOT":0}]
